[{"OBJECT_NAME":"STARLINK-5661","OBJECT_ID":"2023-013N","EPOCH":"2026-03-08T23:49:05.163168","MEAN_MOTION":15.02535792,"ECCENTRICITY":0.00017466,"INCLINATION":43.0055,"RA_OF_ASC_NODE":304.1967,"ARG_OF_PERICENTER":251.6664,"MEAN_ANOMALY":108.3988,"EPHEMERIS_TYPE":0,"CLASSIFICATION_TYPE":"U","NORAD_CAT_ID":55343,"ELEMENT_SET_NO":999,"REV_AT_EPOCH":17160,"BSTAR":-1.7246585e-5,"MEAN_MOTION_DOT":-4.37e-6,"MEAN_MOTION_DDOT":0},{"OBJECT_NAME":"FENGYUN 1C DEB","OBJECT_ID":"1999-025CMN","EPOCH":"2026-03-08T02:55:26.099904","MEAN_MOTION":14.79998797,"ECCENTRICITY":0.01585695,"INCLINATION":99.2491,"RA_OF_ASC_NODE":174.5116,"ARG_OF_PERICENTER":31.4432,"MEAN_ANOMALY":329.6136,"EPHEMERIS_TYPE":0,"CLASSIFICATION_TYPE":"U","NORAD_CAT_ID":31937,"ELEMENT_SET_NO":999,"REV_AT_EPOCH":67331,"BSTAR":0.0010230441,"MEAN_MOTION_DOT":9.525e-5,"MEAN_MOTION_DDOT":0}]
